STARLINK-35524          
1 65914U 25225E   25303.91668981 -.02029594  00000+0 -28917-1 0  9992
2 65914  53.1591  51.1757 0000975  73.1767 197.6737 15.59295546  4543
STARLINK-35539          
1 65915U 25225F   25303.91668981 -.02421103  00000+0 -48206-1 0  9998
2 65915  53.1595  51.4982 0001313  58.0493  53.0191 15.49710255  4497
STARLINK-35521          
1 65916U 25225G   25303.91668981 -.02025912  00000+0 -28863-1 0  9994
2 65916  53.1595  51.1671 0000896  65.0736 209.6137 15.59291104  4546
STARLINK-35478          
1 65917U 25225H   25303.91668981 -.02019502  00000+0 -28762-1 0  9991
2 65917  53.1592  51.1587 0001008  77.4150 201.1070 15.59286839  4499
STARLINK-35516          
1 65918U 25225J   25303.91668981 -.02022668  00000+0 -28813-1 0  9996
2 65918  53.1592  51.1633 0000911  57.1296 219.4749 15.59288252  4542
STARLINK-35519          
1 65919U 25225K   25303.91668981 -.02025280  00000+0 -28853-1 0  9994
2 65919  53.1589  51.1559 0000896  63.8294 216.6089 15.59290322  4547
STARLINK-33902          
1 65920U 25225L   25303.91668981 -.02021488  00000+0 -28792-1 0  9994
2 65920  53.1595  51.1512 0000876  61.1618 221.1910 15.59289697  4530
STARLINK-35530          
1 65921U 25225M   25303.91668981 -.02019657  00000+0 -28765-1 0  9990
2 65921  53.1591  51.1479 0000872  68.8301 215.4420 15.59287774  4499
STARLINK-35544          
1 65922U 25225N   25303.91668981 -.02018093  00000+0 -28741-1 0  9998
2 65922  53.1595  51.1433 0000934  68.0528 218.1391 15.59285292  4542
STARLINK-35484          
1 65923U 25225P   25303.91668981 -.02021847  00000+0 -28802-1 0  9998
2 65923  53.1593  51.1395 0000872  65.2111 222.8980 15.59286632  4541
STARLINK-34994          
1 65924U 25225Q   25303.91668981 -.02024194  00000+0 -28837-1 0  9995
2 65924  53.1590  51.1353 0000916  64.6008 225.4240 15.59288435  4541
STARLINK-35458          
1 65925U 25225R   25303.91668981 -.02024173  00000+0 -28834-1 0  9990
2 65925  53.1591  51.1271 0000890  59.8341 234.0193 15.59291031  4548
