CCSDS_OMM_VERS = 2.0
CREATION_DATE  = 
ORIGINATOR     = 

OBJECT_NAME    = STARLINK-35524
OBJECT_ID      = 2025-225E
CENTER_NAME    = EARTH
REF_FRAME      = TEME
TIME_SYSTEM    = UTC
MEAN_ELEMENT_THEORY = SGP/SGP4

EPOCH          = 2025-10-30T22:00:01.999584
MEAN_MOTION    = 15.59295546
ECCENTRICITY   = .00009755
INCLINATION    = 53.1591
RA_OF_ASC_NODE = 51.1757
ARG_OF_PERICENTER = 73.1767
MEAN_ANOMALY   = 197.6737

EPHEMERIS_TYPE = 0
CLASSIFICATION_TYPE = U
NORAD_CAT_ID   = 65914
ELEMENT_SET_NO = 999
REV_AT_EPOCH   = 454
BSTAR          = -.28916818E-1
MEAN_MOTION_DOT = -.2029594E-1
MEAN_MOTION_DDOT = 0

CCSDS_OMM_VERS = 2.0
CREATION_DATE  = 
ORIGINATOR     = 

OBJECT_NAME    = STARLINK-35539
OBJECT_ID      = 2025-225F
CENTER_NAME    = EARTH
REF_FRAME      = TEME
TIME_SYSTEM    = UTC
MEAN_ELEMENT_THEORY = SGP/SGP4

EPOCH          = 2025-10-30T22:00:01.999584
MEAN_MOTION    = 15.49710255
ECCENTRICITY   = .00013136
INCLINATION    = 53.1595
RA_OF_ASC_NODE = 51.4982
ARG_OF_PERICENTER = 58.0493
MEAN_ANOMALY   = 53.0191

EPHEMERIS_TYPE = 0
CLASSIFICATION_TYPE = U
NORAD_CAT_ID   = 65915
ELEMENT_SET_NO = 999
REV_AT_EPOCH   = 449
BSTAR          = -.48206171E-1
MEAN_MOTION_DOT = -.2421103E-1
MEAN_MOTION_DDOT = 0

CCSDS_OMM_VERS = 2.0
CREATION_DATE  = 
ORIGINATOR     = 

OBJECT_NAME    = STARLINK-35521
OBJECT_ID      = 2025-225G
CENTER_NAME    = EARTH
REF_FRAME      = TEME
TIME_SYSTEM    = UTC
MEAN_ELEMENT_THEORY = SGP/SGP4

EPOCH          = 2025-10-30T22:00:01.999584
MEAN_MOTION    = 15.59291104
ECCENTRICITY   = .00008961
INCLINATION    = 53.1595
RA_OF_ASC_NODE = 51.1671
ARG_OF_PERICENTER = 65.0736
MEAN_ANOMALY   = 209.6137

EPHEMERIS_TYPE = 0
CLASSIFICATION_TYPE = U
NORAD_CAT_ID   = 65916
ELEMENT_SET_NO = 999
REV_AT_EPOCH   = 454
BSTAR          = -.28862619E-1
MEAN_MOTION_DOT = -.2025912E-1
MEAN_MOTION_DDOT = 0

CCSDS_OMM_VERS = 2.0
CREATION_DATE  = 
ORIGINATOR     = 

OBJECT_NAME    = STARLINK-35478
OBJECT_ID      = 2025-225H
CENTER_NAME    = EARTH
REF_FRAME      = TEME
TIME_SYSTEM    = UTC
MEAN_ELEMENT_THEORY = SGP/SGP4

EPOCH          = 2025-10-30T22:00:01.999584
MEAN_MOTION    = 15.59286839
ECCENTRICITY   = .00010081
INCLINATION    = 53.1592
RA_OF_ASC_NODE = 51.1587
ARG_OF_PERICENTER = 77.4150
MEAN_ANOMALY   = 201.1070

EPHEMERIS_TYPE = 0
CLASSIFICATION_TYPE = U
NORAD_CAT_ID   = 65917
ELEMENT_SET_NO = 999
REV_AT_EPOCH   = 449
BSTAR          = -.2876154E-1
MEAN_MOTION_DOT = -.2019502E-1
MEAN_MOTION_DDOT = 0

CCSDS_OMM_VERS = 2.0
CREATION_DATE  = 
ORIGINATOR     = 

OBJECT_NAME    = STARLINK-35516
OBJECT_ID      = 2025-225J
CENTER_NAME    = EARTH
REF_FRAME      = TEME
TIME_SYSTEM    = UTC
MEAN_ELEMENT_THEORY = SGP/SGP4

EPOCH          = 2025-10-30T22:00:01.999584
MEAN_MOTION    = 15.59288252
ECCENTRICITY   = .00009111
INCLINATION    = 53.1592
RA_OF_ASC_NODE = 51.1633
ARG_OF_PERICENTER = 57.1296
MEAN_ANOMALY   = 219.4749

EPHEMERIS_TYPE = 0
CLASSIFICATION_TYPE = U
NORAD_CAT_ID   = 65918
ELEMENT_SET_NO = 999
REV_AT_EPOCH   = 454
BSTAR          = -.28812698E-1
MEAN_MOTION_DOT = -.2022668E-1
MEAN_MOTION_DDOT = 0

CCSDS_OMM_VERS = 2.0
CREATION_DATE  = 
ORIGINATOR     = 

OBJECT_NAME    = STARLINK-35519
OBJECT_ID      = 2025-225K
CENTER_NAME    = EARTH
REF_FRAME      = TEME
TIME_SYSTEM    = UTC
MEAN_ELEMENT_THEORY = SGP/SGP4

EPOCH          = 2025-10-30T22:00:01.999584
MEAN_MOTION    = 15.59290322
ECCENTRICITY   = .00008967
INCLINATION    = 53.1589
RA_OF_ASC_NODE = 51.1559
ARG_OF_PERICENTER = 63.8294
MEAN_ANOMALY   = 216.6089

EPHEMERIS_TYPE = 0
CLASSIFICATION_TYPE = U
NORAD_CAT_ID   = 65919
ELEMENT_SET_NO = 999
REV_AT_EPOCH   = 454
BSTAR          = -.28853153E-1
MEAN_MOTION_DOT = -.202528E-1
MEAN_MOTION_DDOT = 0

CCSDS_OMM_VERS = 2.0
CREATION_DATE  = 
ORIGINATOR     = 

OBJECT_NAME    = STARLINK-33902
OBJECT_ID      = 2025-225L
CENTER_NAME    = EARTH
REF_FRAME      = TEME
TIME_SYSTEM    = UTC
MEAN_ELEMENT_THEORY = SGP/SGP4

EPOCH          = 2025-10-30T22:00:01.999584
MEAN_MOTION    = 15.59289697
ECCENTRICITY   = .00008765
INCLINATION    = 53.1595
RA_OF_ASC_NODE = 51.1512
ARG_OF_PERICENTER = 61.1618
MEAN_ANOMALY   = 221.1910

EPHEMERIS_TYPE = 0
CLASSIFICATION_TYPE = U
NORAD_CAT_ID   = 65920
ELEMENT_SET_NO = 999
REV_AT_EPOCH   = 453
BSTAR          = -.28792276E-1
MEAN_MOTION_DOT = -.2021488E-1
MEAN_MOTION_DDOT = 0

CCSDS_OMM_VERS = 2.0
CREATION_DATE  = 
ORIGINATOR     = 

OBJECT_NAME    = STARLINK-35530
OBJECT_ID      = 2025-225M
CENTER_NAME    = EARTH
REF_FRAME      = TEME
TIME_SYSTEM    = UTC
MEAN_ELEMENT_THEORY = SGP/SGP4

EPOCH          = 2025-10-30T22:00:01.999584
MEAN_MOTION    = 15.59287774
ECCENTRICITY   = .00008721
INCLINATION    = 53.1591
RA_OF_ASC_NODE = 51.1479
ARG_OF_PERICENTER = 68.8301
MEAN_ANOMALY   = 215.4420

EPHEMERIS_TYPE = 0
CLASSIFICATION_TYPE = U
NORAD_CAT_ID   = 65921
ELEMENT_SET_NO = 999
REV_AT_EPOCH   = 449
BSTAR          = -.28764597E-1
MEAN_MOTION_DOT = -.2019657E-1
MEAN_MOTION_DDOT = 0

CCSDS_OMM_VERS = 2.0
CREATION_DATE  = 
ORIGINATOR     = 

OBJECT_NAME    = STARLINK-35544
OBJECT_ID      = 2025-225N
CENTER_NAME    = EARTH
REF_FRAME      = TEME
TIME_SYSTEM    = UTC
MEAN_ELEMENT_THEORY = SGP/SGP4

EPOCH          = 2025-10-30T22:00:01.999584
MEAN_MOTION    = 15.59285292
ECCENTRICITY   = .00009342
INCLINATION    = 53.1595
RA_OF_ASC_NODE = 51.1433
ARG_OF_PERICENTER = 68.0528
MEAN_ANOMALY   = 218.1391

EPHEMERIS_TYPE = 0
CLASSIFICATION_TYPE = U
NORAD_CAT_ID   = 65922
ELEMENT_SET_NO = 999
REV_AT_EPOCH   = 454
BSTAR          = -.28741157E-1
MEAN_MOTION_DOT = -.2018093E-1
MEAN_MOTION_DDOT = 0

CCSDS_OMM_VERS = 2.0
CREATION_DATE  = 
ORIGINATOR     = 

OBJECT_NAME    = STARLINK-35484
OBJECT_ID      = 2025-225P
CENTER_NAME    = EARTH
REF_FRAME      = TEME
TIME_SYSTEM    = UTC
MEAN_ELEMENT_THEORY = SGP/SGP4

EPOCH          = 2025-10-30T22:00:01.999584
MEAN_MOTION    = 15.59286632
ECCENTRICITY   = .00008729
INCLINATION    = 53.1593
RA_OF_ASC_NODE = 51.1395
ARG_OF_PERICENTER = 65.2111
MEAN_ANOMALY   = 222.8980

EPHEMERIS_TYPE = 0
CLASSIFICATION_TYPE = U
NORAD_CAT_ID   = 65923
ELEMENT_SET_NO = 999
REV_AT_EPOCH   = 454
BSTAR          = -.28801547E-1
MEAN_MOTION_DOT = -.2021847E-1
MEAN_MOTION_DDOT = 0

CCSDS_OMM_VERS = 2.0
CREATION_DATE  = 
ORIGINATOR     = 

OBJECT_NAME    = STARLINK-34994
OBJECT_ID      = 2025-225Q
CENTER_NAME    = EARTH
REF_FRAME      = TEME
TIME_SYSTEM    = UTC
MEAN_ELEMENT_THEORY = SGP/SGP4

EPOCH          = 2025-10-30T22:00:01.999584
MEAN_MOTION    = 15.59288435
ECCENTRICITY   = .0000916
INCLINATION    = 53.1590
RA_OF_ASC_NODE = 51.1353
ARG_OF_PERICENTER = 64.6008
MEAN_ANOMALY   = 225.4240

EPHEMERIS_TYPE = 0
CLASSIFICATION_TYPE = U
NORAD_CAT_ID   = 65924
ELEMENT_SET_NO = 999
REV_AT_EPOCH   = 454
BSTAR          = -.28837324E-1
MEAN_MOTION_DOT = -.2024194E-1
MEAN_MOTION_DDOT = 0

CCSDS_OMM_VERS = 2.0
CREATION_DATE  = 
ORIGINATOR     = 

OBJECT_NAME    = STARLINK-35458
OBJECT_ID      = 2025-225R
CENTER_NAME    = EARTH
REF_FRAME      = TEME
TIME_SYSTEM    = UTC
MEAN_ELEMENT_THEORY = SGP/SGP4

EPOCH          = 2025-10-30T22:00:01.999584
MEAN_MOTION    = 15.59291031
ECCENTRICITY   = .00008901
INCLINATION    = 53.1591
RA_OF_ASC_NODE = 51.1271
ARG_OF_PERICENTER = 59.8341
MEAN_ANOMALY   = 234.0193

EPHEMERIS_TYPE = 0
CLASSIFICATION_TYPE = U
NORAD_CAT_ID   = 65925
ELEMENT_SET_NO = 999
REV_AT_EPOCH   = 454
BSTAR          = -.28834394E-1
MEAN_MOTION_DOT = -.2024173E-1
MEAN_MOTION_DDOT = 0

